{
  "recommend": [
    {
      "placeName": "CGV 구미",
      "addressName": "경북 구미시 원평동 68-1",
      "categoryName": "문화,예술 > 영화,영상 > 영화관 > CGV",
      "x": "128.327683824186",
      "y": "36.1301186984353",
      "id": "896b"
    },
    {
      "placeName": "롯데시네마 구미공단",
      "addressName": "경북 구미시 공단동 253-2",
      "categoryName": "문화,예술 > 영화,영상 > 영화관 > 롯데시네마",
      "x": "128.38502408916116",
      "y": "36.104414144781785",
      "id": "e06b"
    },
    {
      "placeName": "메가박스 구미강동",
      "addressName": "경북 구미시 진평동 1023-2",
      "categoryName": "문화,예술 > 영화,영상 > 영화관 > 메가박스",
      "x": "128.417878870048",
      "y": "36.1071765439437",
      "id": "a108"
    },
    {
      "placeName": "롯데시네마 프리미엄구미센트럴",
      "addressName": "경북 구미시 원평동 147-12",
      "categoryName": "문화,예술 > 영화,영상 > 영화관 > 롯데시네마",
      "x": "128.334858048949",
      "y": "36.1289996676429",
      "id": "f9be"
    },
    {
      "placeName": "구미시립 양포도서관",
      "addressName": "경북 구미시 옥계동 908",
      "categoryName": "교육,학문 > 학습시설 > 도서관 > 국공립도서관",
      "x": "128.42300768085",
      "y": "36.1388354950885",
      "id": "5525"
    },
    {
      "placeName": "스타벅스 구미옥계점",
      "addressName": "경북 구미시 옥계동 832-3",
      "categoryName": "음식점 > 카페 > 커피전문점 > 스타벅스",
      "x": "128.419549543035",
      "y": "36.1382926080393",
      "id": "8719"
    },
    {
      "placeName": "라라랜드룸카페",
      "addressName": "경북 구미시 거의동 456-7",
      "categoryName": "음식점 > 카페 > 테마카페",
      "x": "128.39638509644922",
      "y": "36.139275055292075",
      "id": "3ee1"
    },
    {
      "placeName": "메가MGC커피 금오공대점",
      "addressName": "경북 구미시 거의동 467-3",
      "categoryName": "음식점 > 카페 > 커피전문점 > 메가MGC커피",
      "x": "128.396166513187",
      "y": "36.1407951077424",
      "id": "f88c"
    },
    {
      "placeName": "어벤더치커피 구미금오공대점",
      "addressName": "경북 구미시 거의동 456",
      "categoryName": "음식점 > 카페 > 커피전문점",
      "x": "128.39632142806627",
      "y": "36.13963174428071",
      "id": "0b4a"
    },
    {
      "placeName": "금오공과대학교 도서관",
      "addressName": "경북 구미시 거의동 468",
      "categoryName": "교육,학문 > 학습시설 > 도서관",
      "x": "128.393793224152",
      "y": "36.1458042033865",
      "id": "0d2a"
    }
  ],
  "interests": [
    {
      "id": "3aab",
      "placeName": "롯데시네마 구미공단",
      "categoryName": "문화,예술 > 영화,영상 > 영화관 > 롯데시네마",
      "x": "128.38502408916116",
      "y": "36.104414144781785",
      "addressName": "경북 구미시 공단동 253-2"
    },
    {
      "id": "276a",
      "placeName": "스타벅스 구미옥계점",
      "categoryName": "음식점 > 카페 > 커피전문점 > 스타벅스",
      "x": "128.419549543035",
      "y": "36.1382926080393",
      "addressName": "경북 구미시 옥계동 832-3"
    }
  ]
}